CCSDS_OMM_VERS = 2.0
CREATION_DATE  = 
ORIGINATOR     = 

OBJECT_NAME    = IDEFIX & ARIANE 42P R/B
OBJECT_ID      = 2002-021B
CENTER_NAME    = EARTH
REF_FRAME      = TEME
TIME_SYSTEM    = UTC
MEAN_ELEMENT_THEORY = SGP/SGP4

EPOCH          = 2026-01-18T20:26:58.428096
MEAN_MOTION    = 14.30981144
ECCENTRICITY   = .00115275
INCLINATION    = 98.5825
RA_OF_ASC_NODE = 318.0696
ARG_OF_PERICENTER = 339.6882
MEAN_ANOMALY   = 20.3841

EPHEMERIS_TYPE = 0
CLASSIFICATION_TYPE = U
NORAD_CAT_ID   = 27422
ELEMENT_SET_NO = 999
REV_AT_EPOCH   = 23689
BSTAR          = .10998127E-3
MEAN_MOTION_DOT = .246E-5
MEAN_MOTION_DDOT = 0

CCSDS_OMM_VERS = 2.0
CREATION_DATE  = 
ORIGINATOR     = 

OBJECT_NAME    = AQUA
OBJECT_ID      = 2002-022A
CENTER_NAME    = EARTH
REF_FRAME      = TEME
TIME_SYSTEM    = UTC
MEAN_ELEMENT_THEORY = SGP/SGP4

EPOCH          = 2026-01-18T22:14:12.039072
MEAN_MOTION    = 14.61828815
ECCENTRICITY   = .00019973
INCLINATION    = 98.4089
RA_OF_ASC_NODE = 345.4199
ARG_OF_PERICENTER = 73.4625
MEAN_ANOMALY   = 351.8991

EPHEMERIS_TYPE = 0
CLASSIFICATION_TYPE = U
NORAD_CAT_ID   = 27424
ELEMENT_SET_NO = 999
REV_AT_EPOCH   = 26146
BSTAR          = .19289689E-3
MEAN_MOTION_DOT = .914E-5
MEAN_MOTION_DDOT = 0

CCSDS_OMM_VERS = 2.0
CREATION_DATE  = 
ORIGINATOR     = 

OBJECT_NAME    = CZ-4B R/B
OBJECT_ID      = 2002-024C
CENTER_NAME    = EARTH
REF_FRAME      = TEME
TIME_SYSTEM    = UTC
MEAN_ELEMENT_THEORY = SGP/SGP4

EPOCH          = 2026-01-18T23:52:15.923136
MEAN_MOTION    = 14.14536303
ECCENTRICITY   = .00504895
INCLINATION    = 98.8940
RA_OF_ASC_NODE = 72.6263
ARG_OF_PERICENTER = 163.1627
MEAN_ANOMALY   = 265.1267

EPHEMERIS_TYPE = 0
CLASSIFICATION_TYPE = U
NORAD_CAT_ID   = 27432
ELEMENT_SET_NO = 999
REV_AT_EPOCH   = 22221
BSTAR          = .46281326E-4
MEAN_MOTION_DOT = .46E-6
MEAN_MOTION_DDOT = 0

CCSDS_OMM_VERS = 2.0
CREATION_DATE  = 
ORIGINATOR     = 

OBJECT_NAME    = MIDORI II (ADEOS-II)
OBJECT_ID      = 2002-056A
CENTER_NAME    = EARTH
REF_FRAME      = TEME
TIME_SYSTEM    = UTC
MEAN_ELEMENT_THEORY = SGP/SGP4

EPOCH          = 2026-01-18T23:01:49.560096
MEAN_MOTION    = 14.29237678
ECCENTRICITY   = .00018261
INCLINATION    = 98.7690
RA_OF_ASC_NODE = 337.1218
ARG_OF_PERICENTER = 112.7999
MEAN_ANOMALY   = 247.3375

EPHEMERIS_TYPE = 0
CLASSIFICATION_TYPE = U
NORAD_CAT_ID   = 27597
ELEMENT_SET_NO = 999
REV_AT_EPOCH   = 20319
BSTAR          = .12440752E-3
MEAN_MOTION_DOT = .271E-5
MEAN_MOTION_DDOT = 0

CCSDS_OMM_VERS = 2.0
CREATION_DATE  = 
ORIGINATOR     = 

OBJECT_NAME    = H-2A R/B
OBJECT_ID      = 2002-056E
CENTER_NAME    = EARTH
REF_FRAME      = TEME
TIME_SYSTEM    = UTC
MEAN_ELEMENT_THEORY = SGP/SGP4

EPOCH          = 2026-01-18T21:03:18.910080
MEAN_MOTION    = 14.33714114
ECCENTRICITY   = .00694237
INCLINATION    = 98.3116
RA_OF_ASC_NODE = 341.1670
ARG_OF_PERICENTER = 310.7951
MEAN_ANOMALY   = 102.6647

EPHEMERIS_TYPE = 0
CLASSIFICATION_TYPE = U
NORAD_CAT_ID   = 27601
ELEMENT_SET_NO = 999
REV_AT_EPOCH   = 20697
BSTAR          = .12166966E-3
MEAN_MOTION_DOT = .305E-5
MEAN_MOTION_DDOT = 0

CCSDS_OMM_VERS = 2.0
CREATION_DATE  = 
ORIGINATOR     = 

OBJECT_NAME    = CZ-4B R/B
OBJECT_ID      = 2003-049C
CENTER_NAME    = EARTH
REF_FRAME      = TEME
TIME_SYSTEM    = UTC
MEAN_ELEMENT_THEORY = SGP/SGP4

EPOCH          = 2026-01-18T22:31:45.141024
MEAN_MOTION    = 14.54952195
ECCENTRICITY   = .00487242
INCLINATION    = 98.6820
RA_OF_ASC_NODE = 11.9151
ARG_OF_PERICENTER = 24.7997
MEAN_ANOMALY   = 335.5525

EPHEMERIS_TYPE = 0
CLASSIFICATION_TYPE = U
NORAD_CAT_ID   = 28059
ELEMENT_SET_NO = 999
REV_AT_EPOCH   = 17936
BSTAR          = .1101047E-3
MEAN_MOTION_DOT = .43E-5
MEAN_MOTION_DDOT = 0

CCSDS_OMM_VERS = 2.0
CREATION_DATE  = 
ORIGINATOR     = 

OBJECT_NAME    = CZ-2C R/B
OBJECT_ID      = 2004-012C
CENTER_NAME    = EARTH
REF_FRAME      = TEME
TIME_SYSTEM    = UTC
MEAN_ELEMENT_THEORY = SGP/SGP4

EPOCH          = 2026-01-18T16:35:54.703104
MEAN_MOTION    = 15.58693223
ECCENTRICITY   = .0017203
INCLINATION    = 97.7356
RA_OF_ASC_NODE = 79.4431
ARG_OF_PERICENTER = 132.9213
MEAN_ANOMALY   = 227.3489

EPHEMERIS_TYPE = 0
CLASSIFICATION_TYPE = U
NORAD_CAT_ID   = 28222
ELEMENT_SET_NO = 999
REV_AT_EPOCH   = 19647
BSTAR          = .50284329E-3
MEAN_MOTION_DOT = .38933E-3
MEAN_MOTION_DDOT = 0

CCSDS_OMM_VERS = 2.0
CREATION_DATE  = 
ORIGINATOR     = 

OBJECT_NAME    = SL-16 R/B
OBJECT_ID      = 2004-021B
CENTER_NAME    = EARTH
REF_FRAME      = TEME
TIME_SYSTEM    = UTC
MEAN_ELEMENT_THEORY = SGP/SGP4

EPOCH          = 2026-01-18T22:59:39.325056
MEAN_MOTION    = 14.14592446
ECCENTRICITY   = .00028195
INCLINATION    = 71.0029
RA_OF_ASC_NODE = 336.8586
ARG_OF_PERICENTER = 136.2509
MEAN_ANOMALY   = 223.8838

EPHEMERIS_TYPE = 0
CLASSIFICATION_TYPE = U
NORAD_CAT_ID   = 28353
ELEMENT_SET_NO = 999
REV_AT_EPOCH   = 11580
BSTAR          = -.48338943E-4
MEAN_MOTION_DOT = -.14E-5
MEAN_MOTION_DDOT = 0

CCSDS_OMM_VERS = 2.0
CREATION_DATE  = 
ORIGINATOR     = 

OBJECT_NAME    = CZ-4B R/B
OBJECT_ID      = 2004-035C
CENTER_NAME    = EARTH
REF_FRAME      = TEME
TIME_SYSTEM    = UTC
MEAN_ELEMENT_THEORY = SGP/SGP4

EPOCH          = 2026-01-18T15:13:18.427584
MEAN_MOTION    = 15.28044865
ECCENTRICITY   = .00338084
INCLINATION    = 97.3566
RA_OF_ASC_NODE = 53.4952
ARG_OF_PERICENTER = 143.8999
MEAN_ANOMALY   = 216.4532

EPHEMERIS_TYPE = 0
CLASSIFICATION_TYPE = U
NORAD_CAT_ID   = 28415
ELEMENT_SET_NO = 999
REV_AT_EPOCH   = 17226
BSTAR          = .28498481E-3
MEAN_MOTION_DOT = .7853E-4
MEAN_MOTION_DDOT = 0

CCSDS_OMM_VERS = 2.0
CREATION_DATE  = 
ORIGINATOR     = 

OBJECT_NAME    = CZ-2C R/B
OBJECT_ID      = 2004-046B
CENTER_NAME    = EARTH
REF_FRAME      = TEME
TIME_SYSTEM    = UTC
MEAN_ELEMENT_THEORY = SGP/SGP4

EPOCH          = 2026-01-18T18:30:39.379104
MEAN_MOTION    = 14.26967129
ECCENTRICITY   = .01385148
INCLINATION    = 98.2003
RA_OF_ASC_NODE = 296.8523
ARG_OF_PERICENTER = 302.8256
MEAN_ANOMALY   = 55.9651

EPHEMERIS_TYPE = 0
CLASSIFICATION_TYPE = U
NORAD_CAT_ID   = 28480
ELEMENT_SET_NO = 999
REV_AT_EPOCH   = 10138
BSTAR          = .72667436E-4
MEAN_MOTION_DOT = .153E-5
MEAN_MOTION_DDOT = 0

CCSDS_OMM_VERS = 2.0
CREATION_DATE  = 
ORIGINATOR     = 

OBJECT_NAME    = ARIANE 5 R/B
OBJECT_ID      = 2004-049H
CENTER_NAME    = EARTH
REF_FRAME      = TEME
TIME_SYSTEM    = UTC
MEAN_ELEMENT_THEORY = SGP/SGP4

EPOCH          = 2026-01-18T21:54:16.579296
MEAN_MOTION    = 14.85129042
ECCENTRICITY   = .00849287
INCLINATION    = 98.2549
RA_OF_ASC_NODE = 185.5350
ARG_OF_PERICENTER = 151.7258
MEAN_ANOMALY   = 208.8605

EPHEMERIS_TYPE = 0
CLASSIFICATION_TYPE = U
NORAD_CAT_ID   = 28499
ELEMENT_SET_NO = 999
REV_AT_EPOCH   = 13840
BSTAR          = .12584995E-3
MEAN_MOTION_DOT = .1084E-4
MEAN_MOTION_DDOT = 0

CCSDS_OMM_VERS = 2.0
CREATION_DATE  = 
ORIGINATOR     = 

OBJECT_NAME    = CZ-2D R/B
OBJECT_ID      = 2005-024B
CENTER_NAME    = EARTH
REF_FRAME      = TEME
TIME_SYSTEM    = UTC
MEAN_ELEMENT_THEORY = SGP/SGP4

EPOCH          = 2026-01-18T22:20:02.112864
MEAN_MOTION    = 15.55689580
ECCENTRICITY   = .00047696
INCLINATION    = 97.3617
RA_OF_ASC_NODE = 32.4190
ARG_OF_PERICENTER = 175.0805
MEAN_ANOMALY   = 185.0498

EPHEMERIS_TYPE = 0
CLASSIFICATION_TYPE = U
NORAD_CAT_ID   = 28738
ELEMENT_SET_NO = 999
REV_AT_EPOCH   = 13203
BSTAR          = .47794909E-3
MEAN_MOTION_DOT = .32859E-3
MEAN_MOTION_DDOT = 0

