IDEFIX & ARIANE 42P R/B 
1 27422U 02021B   26018.85206514  .00000246  00000+0  10998-3 0  9991
2 27422  98.5825 318.0696 0011527 339.6882  20.3841 14.30981144236895
AQUA                    
1 27424U 02022A   26018.92652823  .00000914  00000+0  19290-3 0  9996
2 27424  98.4089 345.4199 0001997  73.4625 351.8991 14.61828815261466
CZ-4B R/B               
1 27432U 02024C   26018.99462874  .00000046  00000+0  46281-4 0  9996
2 27432  98.8940  72.6263 0050489 163.1627 265.1267 14.14536303222214
MIDORI II (ADEOS-II)    
1 27597U 02056A   26018.95960139  .00000271  00000+0  12441-3 0  9996
2 27597  98.7690 337.1218 0001826 112.7999 247.3375 14.29237678203196
H-2A R/B                
1 27601U 02056E   26018.87730220  .00000305  00000+0  12167-3 0  9992
2 27601  98.3116 341.1670 0069423 310.7951 102.6647 14.33714114206977
CZ-4B R/B               
1 28059U 03049C   26018.93871691  .00000430  00000+0  11010-3 0  9993
2 28059  98.6820  11.9151 0048724  24.7997 335.5525 14.54952195179369
CZ-2C R/B               
1 28222U 04012C   26018.69160536  .00038933  00000+0  50284-3 0  9993
2 28222  97.7356  79.4431 0017203 132.9213 227.3489 15.58693223196473
SL-16 R/B               
1 28353U 04021B   26018.95809404 -.00000140  00000+0 -48339-4 0  9991
2 28353  71.0029 336.8586 0002819 136.2509 223.8838 14.14592446115806
CZ-4B R/B               
1 28415U 04035C   26018.63424106  .00007853  00000+0  28498-3 0  9991
2 28415  97.3566  53.4952 0033808 143.8999 216.4532 15.28044865172265
CZ-2C R/B               
1 28480U 04046B   26018.77128911  .00000153  00000+0  72667-4 0  9999
2 28480  98.2003 296.8523 0138514 302.8256  55.9651 14.26967129101380
ARIANE 5 R/B            
1 28499U 04049H   26018.91269189  .00001084  00000+0  12585-3 0  9997
2 28499  98.2549 185.5350 0084928 151.7258 208.8605 14.85129042138409
CZ-2D R/B               
1 28738U 05024B   26018.93058001  .00032859  00000+0  47795-3 0  9993
2 28738  97.3617  32.4190 0004769 175.0805 185.0498 15.55689580132030
